start=new Date('2022-09-19T00:00:00.000Z').valueOf();
sats=[{"MEAN_ELEMENT_THEORY":"SGP4","TLE_LINE1":"1 53218U 22084AF  22261.74930530 -.00000093  00000-0 -26841-5 0  9999","EPHEMERIS_TYPE":"0","PERIAPSIS":"561.904","DECAY_DATE":null,"ARG_OF_PERICENTER":"122.6211","RCS_SIZE":"LARGE","MEAN_ANOMALY":"237.5168","LAUNCH_DATE":"2022-07-22","TLE_LINE2":"2 53218  97.6540 321.6967 0001603 122.6211 237.5168 15.01258578  9600","OBJECT_TYPE":"PAYLOAD","MEAN_MOTION_DOT":"-0.00000093","NORAD_CAT_ID":"53218","ECCENTRICITY":"0.00016030","SITE":"AFWTR","OBJECT_ID":"2022-084AF","RA_OF_ASC_NODE":"321.6967","EPOCH":"2022-09-18T17:58:59.977920","COUNTRY_CODE":"US","SEMIMAJOR_AXIS":"6941.151","FILE":"3577422","INCLINATION":"97.6540","GP_ID":"212967455","REV_AT_EPOCH":"960","REF_FRAME":"TEME","CLASSIFICATION_TYPE":"U","MEAN_MOTION":"15.01258578","BSTAR":"-0.00000268410000","CENTER_NAME":"EARTH","MEAN_MOTION_DDOT":"0.0000000000000","APOAPSIS":"564.129","ELEMENT_SET_NO":"999","PERIOD":"95.920","TIME_SYSTEM":"UTC","OBJECT_NAME":"STARLINK-4384"},{"TLE_LINE1":"1 53219U 22084AG  22261.80484972  .00001153  00000-0  94376-4 0  9994","MEAN_ELEMENT_THEORY":"SGP4","ARG_OF_PERICENTER":"105.1789","PERIAPSIS":"562.208","DECAY_DATE":null,"EPHEMERIS_TYPE":"0","OBJECT_TYPE":"PAYLOAD","LAUNCH_DATE":"2022-07-22","TLE_LINE2":"2 53219  97.6530 321.7531 0001202 105.1789 254.9568 15.01250227  9092","MEAN_ANOMALY":"254.9568","RCS_SIZE":"LARGE","NORAD_CAT_ID":"53219","MEAN_MOTION_DOT":"0.00001153","SITE":"AFWTR","RA_OF_ASC_NODE":"321.7531","OBJECT_ID":"2022-084AG","ECCENTRICITY":"0.00012020","SEMIMAJOR_AXIS":"6941.177","FILE":"3577422","COUNTRY_CODE":"US","EPOCH":"2022-09-18T19:18:59.015808","CLASSIFICATION_TYPE":"U","MEAN_MOTION":"15.01250227","REV_AT_EPOCH":"909","REF_FRAME":"TEME","INCLINATION":"97.6530","GP_ID":"212968174","OBJECT_NAME":"STARLINK-4373","APOAPSIS":"563.876","PERIOD":"95.920","ELEMENT_SET_NO":"999","TIME_SYSTEM":"UTC","MEAN_MOTION_DDOT":"0.0000000000000","BSTAR":"0.00009437600000","CENTER_NAME":"EARTH"},{"TLE_LINE1":"1 53220U 22084AH  22261.74373861  .00000955  00000-0  78883-4 0  9997","MEAN_ELEMENT_THEORY":"SGP4","DECAY_DATE":null,"PERIAPSIS":"562.300","ARG_OF_PERICENTER":"111.8804","EPHEMERIS_TYPE":"0","TLE_LINE2":"2 53220  97.6525 321.6919 0001005 111.8804 248.2527 15.01264599  9605","LAUNCH_DATE":"2022-07-22","OBJECT_TYPE":"PAYLOAD","RCS_SIZE":"LARGE","MEAN_ANOMALY":"248.2527","NORAD_CAT_ID":"53220","MEAN_MOTION_DOT":"0.00000955","RA_OF_ASC_NODE":"321.6919","SITE":"AFWTR","OBJECT_ID":"2022-084AH","ECCENTRICITY":"0.00010050","COUNTRY_CODE":"US","FILE":"3577422","SEMIMAJOR_AXIS":"6941.133","EPOCH":"2022-09-18T17:50:59.015904","MEAN_MOTION":"15.01264599","CLASSIFICATION_TYPE":"U","GP_ID":"212968019","INCLINATION":"97.6525","REF_FRAME":"TEME","REV_AT_EPOCH":"960","TIME_SYSTEM":"UTC","APOAPSIS":"563.695","PERIOD":"95.919","ELEMENT_SET_NO":"999","OBJECT_NAME":"STARLINK-4363","CENTER_NAME":"EARTH","BSTAR":"0.00007888300000","MEAN_MOTION_DDOT":"0.0000000000000"},{"MEAN_MOTION_DOT":"0.00001786","NORAD_CAT_ID":"53221","MEAN_ANOMALY":"256.9510","RCS_SIZE":"LARGE","OBJECT_TYPE":"PAYLOAD","LAUNCH_DATE":"2022-07-22","TLE_LINE2":"2 53221  97.6523 321.6920 0001482 103.1879 256.9510 15.01262806  9080","EPHEMERIS_TYPE":"0","ARG_OF_PERICENTER":"103.1879","PERIAPSIS":"561.975","DECAY_DATE":null,"MEAN_ELEMENT_THEORY":"SGP4","TLE_LINE1":"1 53221U 22084AJ  22261.73634027  .00001786  00000-0  14361-3 0  9994","MEAN_MOTION_DDOT":"0.0000000000000","BSTAR":"0.00014361000000","CENTER_NAME":"EARTH","OBJECT_NAME":"STARLINK-4377","APOAPSIS":"564.032","PERIOD":"95.919","ELEMENT_SET_NO":"999","TIME_SYSTEM":"UTC","REV_AT_EPOCH":"908","REF_FRAME":"TEME","INCLINATION":"97.6523","GP_ID":"212968537","CLASSIFICATION_TYPE":"U","MEAN_MOTION":"15.01262806","EPOCH":"2022-09-18T17:40:19.799328","SEMIMAJOR_AXIS":"6941.138","FILE":"3577422","COUNTRY_CODE":"US","ECCENTRICITY":"0.00014820","SITE":"AFWTR","OBJECT_ID":"2022-084AJ","RA_OF_ASC_NODE":"321.6920"},{"LAUNCH_DATE":"2022-07-22","TLE_LINE2":"2 53222  97.6534 321.6894 0001409 126.2622 233.8733 15.01261488  9080","OBJECT_TYPE":"PAYLOAD","RCS_SIZE":"LARGE","MEAN_ANOMALY":"233.8733","NORAD_CAT_ID":"53222","MEAN_MOTION_DOT":"0.00001475","TLE_LINE1":"1 53222U 22084AK  22261.74188783  .00001475  00000-0  11936-3 0  9999","MEAN_ELEMENT_THEORY":"SGP4","PERIAPSIS":"562.029","DECAY_DATE":null,"ARG_OF_PERICENTER":"126.2622","EPHEMERIS_TYPE":"0","MEAN_MOTION":"15.01261488","CLASSIFICATION_TYPE":"U","INCLINATION":"97.6534","GP_ID":"212967870","REV_AT_EPOCH":"908","REF_FRAME":"TEME","ELEMENT_SET_NO":"999","APOAPSIS":"563.985","PERIOD":"95.919","TIME_SYSTEM":"UTC","OBJECT_NAME":"STARLINK-4381","BSTAR":"0.00011936000000","CENTER_NAME":"EARTH","MEAN_MOTION_DDOT":"0.0000000000000","RA_OF_ASC_NODE":"321.6894","SITE":"AFWTR","OBJECT_ID":"2022-084AK","ECCENTRICITY":"0.00014090","COUNTRY_CODE":"US","SEMIMAJOR_AXIS":"6941.142","FILE":"3577422","EPOCH":"2022-09-18T17:48:19.108512"},{"PERIAPSIS":"562.076","DECAY_DATE":null,"ARG_OF_PERICENTER":"107.8736","EPHEMERIS_TYPE":"0","TLE_LINE1":"1 53223U 22084AL  22261.80114546 -.00000406  00000-0 -27047-4 0  9999","MEAN_ELEMENT_THEORY":"SGP4","NORAD_CAT_ID":"53223","MEAN_MOTION_DOT":"-0.00000406","LAUNCH_DATE":"2022-07-22","TLE_LINE2":"2 53223  97.6533 321.7524 0001323 107.8736 252.2632 15.01265764  9092","OBJECT_TYPE":"PAYLOAD","RCS_SIZE":"LARGE","MEAN_ANOMALY":"252.2632","COUNTRY_CODE":"US","SEMIMAJOR_AXIS":"6941.129","FILE":"3577422","EPOCH":"2022-09-18T19:13:38.967744","SITE":"AFWTR","OBJECT_ID":"2022-084AL","RA_OF_ASC_NODE":"321.7524","ECCENTRICITY":"0.00013230","APOAPSIS":"563.912","PERIOD":"95.919","TIME_SYSTEM":"UTC","ELEMENT_SET_NO":"999","OBJECT_NAME":"STARLINK-4354","BSTAR":"-0.00002704700000","CENTER_NAME":"EARTH","MEAN_MOTION_DDOT":"0.0000000000000","MEAN_MOTION":"15.01265764","CLASSIFICATION_TYPE":"U","INCLINATION":"97.6533","GP_ID":"212967760","REV_AT_EPOCH":"909","REF_FRAME":"TEME"},{"NORAD_CAT_ID":"53224","MEAN_MOTION_DOT":"-0.00000078","TLE_LINE2":"2 53224  97.6531 321.6876 0001225 119.9895 240.1451 15.01256022  9082","LAUNCH_DATE":"2022-07-22","OBJECT_TYPE":"PAYLOAD","RCS_SIZE":"LARGE","MEAN_ANOMALY":"240.1451","DECAY_DATE":null,"PERIAPSIS":"562.174","ARG_OF_PERICENTER":"119.9895","EPHEMERIS_TYPE":"0","TLE_LINE1":"1 53224U 22084AM  22261.74004597 -.00000078  00000-0 -14717-5 0  9993","MEAN_ELEMENT_THEORY":"SGP4","APOAPSIS":"563.874","TIME_SYSTEM":"UTC","PERIOD":"95.920","ELEMENT_SET_NO":"999","OBJECT_NAME":"STARLINK-4356","CENTER_NAME":"EARTH","BSTAR":"-0.00000147170000","MEAN_MOTION_DDOT":"0.0000000000000","MEAN_MOTION":"15.01256022","CLASSIFICATION_TYPE":"U","GP_ID":"212967604","INCLINATION":"97.6531","REF_FRAME":"TEME","REV_AT_EPOCH":"908","COUNTRY_CODE":"US","FILE":"3577422","SEMIMAJOR_AXIS":"6941.159","EPOCH":"2022-09-18T17:45:39.971808","SITE":"AFWTR","OBJECT_ID":"2022-084AM","RA_OF_ASC_NODE":"321.6876","ECCENTRICITY":"0.00012250"},{"NORAD_CAT_ID":"53225","MEAN_MOTION_DOT":"0.00002761","OBJECT_TYPE":"PAYLOAD","LAUNCH_DATE":"2022-07-22","TLE_LINE2":"2 53225  97.6532 321.6858 0001771 103.1227 257.0195 15.01258601  9081","MEAN_ANOMALY":"257.0195","RCS_SIZE":"LARGE","ARG_OF_PERICENTER":"103.1227","PERIAPSIS":"561.787","DECAY_DATE":null,"EPHEMERIS_TYPE":"0","TLE_LINE1":"1 53225U 22084AN  22261.73079157  .00002761  00000-0  21948-3 0  9998","MEAN_ELEMENT_THEORY":"SGP4","OBJECT_NAME":"STARLINK-4358","PERIOD":"95.920","APOAPSIS":"564.245","TIME_SYSTEM":"UTC","ELEMENT_SET_NO":"999","MEAN_MOTION_DDOT":"0.0000000000000","BSTAR":"0.00021948000000","CENTER_NAME":"EARTH","MEAN_MOTION":"15.01258601","CLASSIFICATION_TYPE":"U","REV_AT_EPOCH":"908","REF_FRAME":"TEME","INCLINATION":"97.6532","GP_ID":"212968328","SEMIMAJOR_AXIS":"6941.151","FILE":"3577422","COUNTRY_CODE":"US","EPOCH":"2022-09-18T17:32:20.391648","SITE":"AFWTR","RA_OF_ASC_NODE":"321.6858","OBJECT_ID":"2022-084AN","ECCENTRICITY":"0.00017710"},{"MEAN_ELEMENT_THEORY":"SGP4","TLE_LINE1":"1 53226U 22084AP  22261.80138008  .00001721  00000-0  13856-3 0  9992","EPHEMERIS_TYPE":"0","PERIAPSIS":"562.071","DECAY_DATE":null,"ARG_OF_PERICENTER":"106.4510","RCS_SIZE":"LARGE","MEAN_ANOMALY":"253.6861","LAUNCH_DATE":"2022-07-22","TLE_LINE2":"2 53226  97.6518 321.7552 0001342 106.4510 253.6861 15.01263190  9095","OBJECT_TYPE":"PAYLOAD","MEAN_MOTION_DOT":"0.00001721","NORAD_CAT_ID":"53226","ECCENTRICITY":"0.00013420","RA_OF_ASC_NODE":"321.7552","SITE":"AFWTR","OBJECT_ID":"2022-084AP","EPOCH":"2022-09-18T19:13:59.238912","COUNTRY_CODE":"US","SEMIMAJOR_AXIS":"6941.137","FILE":"3577422","INCLINATION":"97.6518","GP_ID":"212967456","REV_AT_EPOCH":"909","REF_FRAME":"TEME","CLASSIFICATION_TYPE":"U","MEAN_MOTION":"15.01263190","BSTAR":"0.00013856000000","CENTER_NAME":"EARTH","MEAN_MOTION_DDOT":"0.0000000000000","APOAPSIS":"563.934","ELEMENT_SET_NO":"999","PERIOD":"95.919","TIME_SYSTEM":"UTC","OBJECT_NAME":"STARLINK-4359"},{"SITE":"AFWTR","RA_OF_ASC_NODE":"321.7515","OBJECT_ID":"2022-084AQ","ECCENTRICITY":"0.00017170","COUNTRY_CODE":"US","FILE":"3577422","SEMIMAJOR_AXIS":"6941.208","EPOCH":"2022-09-18T19:03:20.187360","MEAN_MOTION":"15.01240043","CLASSIFICATION_TYPE":"U","GP_ID":"212968175","INCLINATION":"97.6533","REF_FRAME":"TEME","REV_AT_EPOCH":"909","ELEMENT_SET_NO":"999","APOAPSIS":"564.265","PERIOD":"95.921","TIME_SYSTEM":"UTC","OBJECT_NAME":"STARLINK-4366","CENTER_NAME":"EARTH","BSTAR":"0.00062125000000","MEAN_MOTION_DDOT":"0.0000000000000","TLE_LINE1":"1 53227U 22084AQ  22261.79398365  .00007925  00000-0  62125-3 0  9990","MEAN_ELEMENT_THEORY":"SGP4","DECAY_DATE":null,"PERIAPSIS":"561.882","ARG_OF_PERICENTER":"114.6501","EPHEMERIS_TYPE":"0","TLE_LINE2":"2 53227  97.6533 321.7515 0001717 114.6501 245.4902 15.01240043  9096","LAUNCH_DATE":"2022-07-22","OBJECT_TYPE":"PAYLOAD","RCS_SIZE":"LARGE","MEAN_ANOMALY":"245.4902","NORAD_CAT_ID":"53227","MEAN_MOTION_DOT":"0.00007925"}];
